{"type": "FeatureCollection", "features": [ {"type": "Feature", "properties": {"norad_id": 34117, "name": "COSMOS 2251 DEB", "group": "cosmos-2251-debris", "lat": -31.678726789811563, "lon": 174.07083398766494, "alt_km": 798.6817401647413, "timestamp": "2025-12-12T16:50:33.540154+00:00", "meta": {"OBJECT_NAME": "COSMOS 2251 DEB", "OBJECT_ID": "1993-036KN", "EPOCH": "2025-12-11T23:11:14.007840", "MEAN_MOTION": 14.40006217, "ECCENTRICITY": 0.0054508, "INCLINATION": 74.0405, "RA_OF_ASC_NODE": 345.2579, "ARG_OF_PERICENTER": 61.8578, "MEAN_ANOMALY": 298.807, "EPHEMERIS_TYPE": 0, "CLASSIFICATION_TYPE": "U", "NORAD_CAT_ID": 34117, "ELEMENT_SET_NO": 999, "REV_AT_EPOCH": 88112, "BSTAR": 0.0010312, "MEAN_MOTION_DOT": 3.281e-05, "MEAN_MOTION_DDOT": 0}, "tle": {"line1": "1 34117U 93036KN  25345.96613435  .00003281  00000+0  10312-2 0  9995", "line2": "2 34117  74.0405 345.2579 0054508  61.8578 298.8070 14.40006217881129"}}, "geometry": {"type": "Point", "coordinates": [174.07083398766494, -31.678726789811563]}}, {"type": "Feature", "properties": {"norad_id": 34118, "name": "COSMOS 2251 DEB", "group": "cosmos-2251-debris", "lat": -72.88894498147388, "lon": -179.84566266065133, "alt_km": 632.5900145451369, "timestamp": "2025-12-12T16:50:33.540164+00:00", "meta": {"OBJECT_NAME": "COSMOS 2251 DEB", "OBJECT_ID": "1993-036KP", "EPOCH": "2025-12-11T20:37:53.753088", "MEAN_MOTION": 14.93897498, "ECCENTRICITY": 0.0059871, "INCLINATION": 73.9524, "RA_OF_ASC_NODE": 251.0857, "ARG_OF_PERICENTER": 81.6977, "MEAN_ANOMALY": 347.3453, "EPHEMERIS_TYPE": 0, "CLASSIFICATION_TYPE": "U", "NORAD_CAT_ID": 34118, "ELEMENT_SET_NO": 999, "REV_AT_EPOCH": 89163, "BSTAR": 0.0026512, "MEAN_MOTION_DOT": 0.00029291, "MEAN_MOTION_DDOT": 0}, "tle": {"line1": "1 34118U 93036KP  25345.85964992  .00029291  00000+0  26512-2 0  9999", "line2": "2 34118  73.9524 251.0857 0059871  81.6977 347.3453 14.93897498891633"}}, "geometry": {"type": "Point", "coordinates": [-179.84566266065133, -72.88894498147388]}}, {"type": "Feature", "properties": {"norad_id": 34120, "name": "COSMOS 2251 DEB", "group": "cosmos-2251-debris", "lat": -23.50839782112563, "lon": -150.88700072956442, "alt_km": 852.5971482704008, "timestamp": "2025-12-12T16:50:33.540175+00:00", "meta": {"OBJECT_NAME": "COSMOS 2251 DEB", "OBJECT_ID": "1993-036KR", "EPOCH": "2025-12-12T02:12:39.792672", "MEAN_MOTION": 13.98682417, "ECCENTRICITY": 0.01819321, "INCLINATION": 73.9913, "RA_OF_ASC_NODE": 217.3425, "ARG_OF_PERICENTER": 45.1678, "MEAN_ANOMALY": 103.7932, "EPHEMERIS_TYPE": 0, "CLASSIFICATION_TYPE": "U", "NORAD_CAT_ID": 34120, "ELEMENT_SET_NO": 999, "REV_AT_EPOCH": 85971, "BSTAR": 0.0004839817, "MEAN_MOTION_DOT": 7.78e-06, "MEAN_MOTION_DDOT": 0}, "tle": {"line1": "1 34120U 93036KR  25346.09212723  .00000778  00000+0  48398-3 0  9993", "line2": "2 34120  73.9913 217.3425 0181932  45.1678 103.7932 13.98682417859717"}}, "geometry": {"type": "Point", "coordinates": [-150.88700072956442, -23.50839782112563]}}, {"type": "Feature", "properties": {"norad_id": 34121, "name": "COSMOS 2251 DEB", "group": "cosmos-2251-debris", "lat": -8.341389419425099, "lon": -80.35214714739801, "alt_km": 993.5862501808306, "timestamp": "2025-12-12T16:50:33.540185+00:00", "meta": {"OBJECT_NAME": "COSMOS 2251 DEB", "OBJECT_ID": "1993-036KS", "EPOCH": "2025-12-12T07:25:55.380000", "MEAN_MOTION": 13.91927211, "ECCENTRICITY": 0.02402383, "INCLINATION": 73.9925, "RA_OF_ASC_NODE": 97.9072, "ARG_OF_PERICENTER": 303.4441, "MEAN_ANOMALY": 83.579, "EPHEMERIS_TYPE": 0, "CLASSIFICATION_TYPE": "U", "NORAD_CAT_ID": 34121, "ELEMENT_SET_NO": 999, "REV_AT_EPOCH": 85119, "BSTAR": 0.0017645388, "MEAN_MOTION_DOT": 2.823e-05, "MEAN_MOTION_DDOT": 0}, "tle": {"line1": "1 34121U 93036KS  25346.30966875  .00002823  00000+0  17645-2 0  9995", "line2": "2 34121  73.9925  97.9072 0240238 303.4441  83.5790 13.91927211851192"}}, "geometry": {"type": "Point", "coordinates": [-80.35214714739801, -8.341389419425099]}}, {"type": "Feature", "properties": {"norad_id": 34122, "name": "COSMOS 2251 DEB", "group": "cosmos-2251-debris", "lat": 66.17734610191904, "lon": 159.12462115419896, "alt_km": 636.953937016674, "timestamp": "2025-12-12T16:50:33.540196+00:00", "meta": {"OBJECT_NAME": "COSMOS 2251 DEB", "OBJECT_ID": "1993-036KT", "EPOCH": "2025-12-11T16:00:10.116864", "MEAN_MOTION": 14.65026935, "ECCENTRICITY": 0.00842746, "INCLINATION": 74.0358, "RA_OF_ASC_NODE": 120.6982, "ARG_OF_PERICENTER": 17.8752, "MEAN_ANOMALY": 357.0036, "EPHEMERIS_TYPE": 0, "CLASSIFICATION_TYPE": "U", "NORAD_CAT_ID": 34122, "ELEMENT_SET_NO": 999, "REV_AT_EPOCH": 88669, "BSTAR": 0.0019073278, "MEAN_MOTION_DOT": 0.0001076, "MEAN_MOTION_DDOT": 0}, "tle": {"line1": "1 34122U 93036KT  25345.66678376  .00010760  00000+0  19073-2 0  9996", "line2": "2 34122  74.0358 120.6982 0084274  17.8752 357.0036 14.65026935886696"}}, "geometry": {"type": "Point", "coordinates": [159.12462115419896, 66.17734610191904]}}, {"type": "Feature", "properties": {"norad_id": 34127, "name": "COSMOS 2251 DEB", "group": "cosmos-2251-debris", "lat": -11.59977528642275, "lon": 40.59578047556626, "alt_km": 809.6169396111591, "timestamp": "2025-12-12T16:50:33.540206+00:00", "meta": {"OBJECT_NAME": "COSMOS 2251 DEB", "OBJECT_ID": "1993-036KY", "EPOCH": "2025-12-12T05:25:32.729664", "MEAN_MOTION": 14.31538178, "ECCENTRICITY": 0.0114934, "INCLINATION": 74.1792, "RA_OF_ASC_NODE": 44.7917, "ARG_OF_PERICENTER": 245.0245, "MEAN_ANOMALY": 171.1744, "EPHEMERIS_TYPE": 0, "CLASSIFICATION_TYPE": "U", "NORAD_CAT_ID": 34127, "ELEMENT_SET_NO": 999, "REV_AT_EPOCH": 86764, "BSTAR": 0.002888484, "MEAN_MOTION_DOT": 8.242e-05, "MEAN_MOTION_DDOT": 0}, "tle": {"line1": "1 34127U 93036KY  25346.22607326  .00008242  00000+0  28885-2 0  9994", "line2": "2 34127  74.1792  44.7917 0114934 245.0245 171.1744 14.31538178867642"}}, "geometry": {"type": "Point", "coordinates": [40.59578047556626, -11.59977528642275]}}, {"type": "Feature", "properties": {"norad_id": 34128, "name": "COSMOS 2251 DEB", "group": "cosmos-2251-debris", "lat": -3.424884812397448, "lon": 117.7853314736858, "alt_km": 579.103648540522, "timestamp": "2025-12-12T16:50:33.540216+00:00", "meta": {"OBJECT_NAME": "COSMOS 2251 DEB", "OBJECT_ID": "1993-036KZ", "EPOCH": "2025-12-12T06:58:38.581248", "MEAN_MOTION": 15.01122722, "ECCENTRICITY": 0.00260972, "INCLINATION": 73.9991, "RA_OF_ASC_NODE": 297.6397, "ARG_OF_PERICENTER": 50.058, "MEAN_ANOMALY": 72.7494, "EPHEMERIS_TYPE": 0, "CLASSIFICATION_TYPE": "U", "NORAD_CAT_ID": 34128, "ELEMENT_SET_NO": 999, "REV_AT_EPOCH": 89160, "BSTAR": 0.0027353301, "MEAN_MOTION_DOT": 0.0003543, "MEAN_MOTION_DDOT": 0}, "tle": {"line1": "1 34128U 93036KZ  25346.29072432  .00035430  00000+0  27353-2 0  9994", "line2": "2 34128  73.9991 297.6397 0026097  50.0580  72.7494 15.01122722891603"}}, "geometry": {"type": "Point", "coordinates": [117.7853314736858, -3.424884812397448]}}, {"type": "Feature", "properties": {"norad_id": 34129, "name": "COSMOS 2251 DEB", "group": "cosmos-2251-debris", "lat": 68.73850268013886, "lon": 112.23539713193259, "alt_km": 618.8617442755567, "timestamp": "2025-12-12T16:50:33.540226+00:00", "meta": {"OBJECT_NAME": "COSMOS 2251 DEB", "OBJECT_ID": "1993-036LA", "EPOCH": "2025-12-12T06:36:46.821888", "MEAN_MOTION": 14.75724159, "ECCENTRICITY": 0.00329062, "INCLINATION": 74.0356, "RA_OF_ASC_NODE": 340.4347, "ARG_OF_PERICENTER": 62.0913, "MEAN_ANOMALY": 298.3587, "EPHEMERIS_TYPE": 0, "CLASSIFICATION_TYPE": "U", "NORAD_CAT_ID": 34129, "ELEMENT_SET_NO": 999, "REV_AT_EPOCH": 61291, "BSTAR": 0.0021170437, "MEAN_MOTION_DOT": 0.00014612, "MEAN_MOTION_DDOT": 0}, "tle": {"line1": "1 34129U 93036LA  25346.27554192  .00014612  00000+0  21170-2 0  9991", "line2": "2 34129  74.0356 340.4347 0032906  62.0913 298.3587 14.75724159612918"}}, "geometry": {"type": "Point", "coordinates": [112.23539713193259, 68.73850268013886]}}, {"type": "Feature", "properties": {"norad_id": 34136, "name": "COSMOS 2251 DEB", "group": "cosmos-2251-debris", "lat": -70.58768076964084, "lon": -82.89037923881853, "alt_km": 638.7632825993032, "timestamp": "2025-12-12T16:50:33.540236+00:00", "meta": {"OBJECT_NAME": "COSMOS 2251 DEB", "OBJECT_ID": "1993-036LH", "EPOCH": "2025-12-12T06:14:00.321216", "MEAN_MOTION": 14.80077678, "ECCENTRICITY": 0.00858161, "INCLINATION": 74.021, "RA_OF_ASC_NODE": 43.579, "ARG_OF_PERICENTER": 166.6732, "MEAN_ANOMALY": 256.7734, "EPHEMERIS_TYPE": 0, "CLASSIFICATION_TYPE": "U", "NORAD_CAT_ID": 34136, "ELEMENT_SET_NO": 999, "REV_AT_EPOCH": 90003, "BSTAR": 0.000746903, "MEAN_MOTION_DOT": 5.997e-05, "MEAN_MOTION_DDOT": 0}, "tle": {"line1": "1 34136U 93036LH  25346.25972594  .00005997  00000+0  74690-3 0  9999", "line2": "2 34136  74.0210  43.5790 0085816 166.6732 256.7734 14.80077678900034"}}, "geometry": {"type": "Point", "coordinates": [-82.89037923881853, -70.58768076964084]}}, {"type": "Feature", "properties": {"norad_id": 34139, "name": "COSMOS 2251 DEB", "group": "cosmos-2251-debris", "lat": -17.367128006225958, "lon": -111.00226288018392, "alt_km": 671.9946016254735, "timestamp": "2025-12-12T16:50:33.540247+00:00", "meta": {"OBJECT_NAME": "COSMOS 2251 DEB", "OBJECT_ID": "1993-036LL", "EPOCH": "2025-12-12T04:27:22.339872", "MEAN_MOTION": 14.59054427, "ECCENTRICITY": 0.00425713, "INCLINATION": 74.0306, "RA_OF_ASC_NODE": 255.1192, "ARG_OF_PERICENTER": 326.0171, "MEAN_ANOMALY": 186.0941, "EPHEMERIS_TYPE": 0, "CLASSIFICATION_TYPE": "U", "NORAD_CAT_ID": 34139, "ELEMENT_SET_NO": 999, "REV_AT_EPOCH": 88141, "BSTAR": 0.0021786108, "MEAN_MOTION_DOT": 0.00010357, "MEAN_MOTION_DDOT": 0}, "tle": {"line1": "1 34139U 93036LL  25346.18567523  .00010357  00000+0  21786-2 0  9999", "line2": "2 34139  74.0306 255.1192 0042571 326.0171 186.0941 14.59054427881418"}}, "geometry": {"type": "Point", "coordinates": [-111.00226288018392, -17.367128006225958]}}]}